[{"OBJECT_NAME":"STARLINK-30208","OBJECT_ID":"2023-102M","EPOCH":"2026-03-09T22:00:01.999584","MEAN_MOTION":15.18316824,"ECCENTRICITY":0.00014024,"INCLINATION":42.9996,"RA_OF_ASC_NODE":246.5084,"ARG_OF_PERICENTER":264.9324,"MEAN_ANOMALY":100.8486,"EPHEMERIS_TYPE":0,"CLASSIFICATION_TYPE":"U","NORAD_CAT_ID":57415,"ELEMENT_SET_NO":999,"REV_AT_EPOCH":577,"BSTAR":0.005884723,"MEAN_MOTION_DOT":0.00124918,"MEAN_MOTION_DDOT":0},{"OBJECT_NAME":"PIAST-S2","OBJECT_ID":"2025-276CV","EPOCH":"2026-03-09T16:59:55.512096","MEAN_MOTION":15.19329841,"ECCENTRICITY":5.362e-5,"INCLINATION":97.4284,"RA_OF_ASC_NODE":144.0754,"ARG_OF_PERICENTER":4.7699,"MEAN_ANOMALY":355.3541,"EPHEMERIS_TYPE":0,"CLASSIFICATION_TYPE":"U","NORAD_CAT_ID":66757,"ELEMENT_SET_NO":999,"REV_AT_EPOCH":1532,"BSTAR":0.00034653678,"MEAN_MOTION_DOT":7.255e-5,"MEAN_MOTION_DDOT":0}]
